ONEWEB-0208             
1 48243U 21031AK  26205.22932082 -.00000175  00000+0 -50550-3 0  9993
2 48243  87.8962 282.3258 0002365  97.5285 262.6114 13.14503129253174
ONEWEB-0200             
1 48244U 21031AL  26205.26897511  .00000088  00000+0  20178-3 0  9999
2 48244  87.8971 282.3080 0002101  95.9962 264.1407 13.14502757253101
ONEWEB-0217             
1 48245U 21031AM  26205.20870657  .00000230  00000+0  58644-3 0  9994
2 48245  87.8973 282.3239 0002415  97.7897 262.3507 13.14503238253044
ONEWEB-0211             
1 48767U 21045A   26204.60446353  .00000003  00000+0 -24635-4 0  9996
2 48767  87.8982 251.8180 0002754  99.0113 261.1329 13.16197718249230
ONEWEB-0223             
1 48768U 21045B   26205.15713296 -.00000091  00000+0 -27598-3 0  9999
2 48768  87.8981 251.8255 0002394 102.0380 258.1019 13.15548329249266
ONEWEB-0230             
1 48769U 21045C   26205.12861360  .00000160  00000+0  39045-3 0  9998
2 48769  87.8978 251.8417 0001870  94.6894 265.4450 13.15549016249520
ONEWEB-0237             
1 48770U 21045D   26205.11750361  .00001425  00000+0  37493-2 0  9996
2 48770  87.8968 251.8458 0002489  91.4777 268.6638 13.15557227249243
ONEWEB-0235             
1 48771U 21045E   26205.16820348 -.00000006  00000+0 -51264-4 0  9995
2 48771  87.8979 251.8242 0002383 104.7327 255.4068 13.15546383249241
ONEWEB-0242             
1 48772U 21045F   26205.08582778 -.00000083  00000+0 -25356-3 0  9996
2 48772  87.8985 251.8385 0002044 101.7113 258.4247 13.15548795249275
ONEWEB-0241             
1 48773U 21045G   26205.14923768  .00000004  00000+0 -22946-4 0  9997
2 48773  87.8974 251.8402 0002403 100.5166 259.6235 13.15551749249192
ONEWEB-0243             
1 48774U 21045H   26205.18087839 -.00000160  00000+0 -45816-3 0  9996
2 48774  87.8975 251.8466 0002282 113.1783 246.9588 13.15547085249226
ONEWEB-0222             
1 48775U 21045J   26205.16426547 -.00000116  00000+0 -34257-3 0  9996
2 48775  87.8985 251.8208 0002341  99.0176 261.1219 13.15547050249262
ONEWEB-0244             
1 48776U 21045K   26205.11435439  .00000130  00000+0  31221-3 0  9994
2 48776  87.8983 251.8271 0002122 100.1829 259.9541 13.15548555249823
ONEWEB-0247             
1 48777U 21045L   26205.18722845  .00000157  00000+0  38360-3 0  9992
2 48777  87.8968 251.8395 0002400 116.2766 243.8611 13.15546757249272
ONEWEB-0245             
1 48778U 21045M   26205.18246811 -.00000079  00000+0 -24454-3 0  9991
2 48778  87.8979 251.8230 0002255  97.1917 262.9470 13.15548670249244
ONEWEB-0229             
1 48779U 21045N   26205.17773405  .00000071  00000+0  15371-3 0  9993
2 48779  87.8977 251.8217 0002030 100.2002 259.9357 13.15548110249272
ONEWEB-0228             
1 48780U 21045P   26205.13507697  .00000061  00000+0  12878-3 0  9997
2 48780  87.8987 251.8247 0002140  98.7037 261.4336 13.15549206249181
ONEWEB-0232             
1 48781U 21045Q   26205.18566344  .00000078  00000+0  17185-3 0  9991
2 48781  87.8984 251.8151 0002140  95.1249 265.0126 13.15547455249517
ONEWEB-0231             
1 48782U 21045R   26205.16347509 -.00000159  00000+0 -45719-3 0  9996
2 48782  87.8979 251.8304 0002278 100.0733 260.0654 13.15547615249203
ONEWEB-0234             
1 48783U 21045S   26205.20136955  .00000099  00000+0  22834-3 0  9997
2 48783  87.8990 251.8059 0002524  78.8722 281.2692 13.15547466249344
ONEWEB-0238             
1 48784U 21045T   26205.12556345  .00000906  00000+0  23735-2 0  9995
2 48784  87.8992 251.8177 0003387 102.3614 257.7895 13.15544971249238
ONEWEB-0240             
1 48785U 21045U   26205.22287696  .00000010  00000+0 -70310-5 0  9998
2 48785  87.8984 251.8065 0002421  97.3840 262.7565 13.15549054249279
ONEWEB-0246             
1 48786U 21045V   26205.14128910  .00000026  00000+0  35097-4 0  9991
2 48786  87.8988 251.8273 0002026  99.0338 261.1021 13.15548436249135
ONEWEB-0210             
1 48787U 21045W   26205.11593648  .00000268  00000+0  67655-3 0  9995
2 48787  87.8986 251.8295 0002132 120.6872 239.4469 13.15548907249171
ONEWEB-0214             
1 48788U 21045X   26205.20070725  .00000104  00000+0  24273-3 0  9990
2 48788  87.8985 251.8094 0001772 104.1943 255.9385 13.15547084249156
ONEWEB-0221             
1 48789U 21045Y   26205.20784097  .00000038  00000+0  67433-4 0  9997
2 48789  87.8989 251.8172 0003025 111.3236 248.8218 13.15548673249247
ONEWEB-0213             
1 48790U 21045Z   26205.12068776  .00000186  00000+0  45966-3 0  9999
2 48790  87.8986 251.8366 0002171 102.7641 257.3732 13.15549572249296
ONEWEB-0212             
1 48791U 21045AA  26205.17376799 -.00000066  00000+0 -20892-3 0  9992
2 48791  87.8980 251.8202 0002063  95.2843 264.8523 13.15547319249298
ONEWEB-0227             
1 48792U 21045AB  26205.17296223 -.00001258  00000+0 -33769-2 0  9996
2 48792  87.8985 251.8207 0002164  97.4801 262.6575 13.15552467249247
ONEWEB-0226             
1 48793U 21045AC  26205.16664125 -.00000089  00000+0 -27005-3 0  9994
2 48793  87.8980 251.8263 0002093 103.3671 256.7692 13.15548228249219
ONEWEB-0224             
1 48794U 21045AD  26205.20625493  .00000106  00000+0  24616-3 0  9998
2 48794  87.8979 251.8508 0002850  89.0348 271.1109 13.15549142249144
ONEWEB-0233             
1 48795U 21045AE  26205.13479782  .00000101  00000+0  23391-3 0  9993
2 48795  87.8976 251.8719 0002289 100.2304 259.9084 13.15547370249158
ONEWEB-0190             
1 48796U 21045AF  26205.19832862  .00000073  00000+0  16067-3 0  9992
2 48796  87.8982 251.8236 0002480 111.1485 248.9910 13.15548879249234
ONEWEB-0236             
1 48797U 21045AG  26205.21576213 -.00000010  00000+0 -61072-4 0  9991
2 48797  87.8974 251.8271 0002080  92.6216 267.5153 13.15548725249120
ONEWEB-0248             
1 48798U 21045AH  26205.15236925 -.00000062  00000+0 -19874-3 0  9997
2 48798  87.8984 251.8269 0002560 100.9732 259.1686 13.15549554249273
ONEWEB-0225             
1 48799U 21045AJ  26205.17456789 -.00000022  00000+0 -92055-4 0  9991
2 48799  87.8971 251.8290 0002417 108.1595 251.9799 13.15548377249280
ONEWEB-0215             
1 48800U 21045AK  26205.14444382  .00000026  00000+0  35652-4 0  9999
2 48800  87.8988 251.8198 0002602 107.2032 252.9384 13.15549951249156
ONEWEB-0216             
1 48801U 21045AL  26205.15396645 -.00000117  00000+0 -34483-3 0  9992
2 48801  87.8981 251.8312 0001988  96.2560 263.8797 13.15548457249167
ONEWEB-0239             
1 48802U 21045AM  26205.15872428 -.00000127  00000+0 -37182-3 0  9991
2 48802  87.8975 251.8341 0002840 103.8460 256.2987 13.15547981249208
ONEWEB-0249             
1 48967U 21060A   26205.29139562  .00000097  00000+0  22055-3 0  9997
2 48967  87.9081 221.4073 0002190  92.6496 267.4885 13.16593281244498
ONEWEB-0250             
1 48968U 21060B   26205.13577415  .00000065  00000+0  11716-3 0  9991
2 48968  87.9081 219.0742 0002912  77.5682 282.5780 13.25835910245116
ONEWEB-0252             
1 48970U 21060D   26205.24628700 -.00000905  00000+0 -24012-2 0  9997
2 48970  87.9085 221.4102 0001928 100.0839 260.0510 13.16587281244534
ONEWEB-0253             
1 48971U 21060E   26205.08319562  .00000043  00000+0  79891-4 0  9991
2 48971  87.9076 221.4461 0002194  91.0433 269.0949 13.16595776244441
ONEWEB-0254             
1 48972U 21060F   26205.09271026 -.00000012  00000+0 -66017-4 0  9999
2 48972  87.9079 221.4426 0002372  95.1843 264.9559 13.16594011244446
ONEWEB-0255             
1 48973U 21060G   26205.05471077  .00000038  00000+0  65618-4 0  9996
2 48973  87.9081 221.4564 0002223  95.1435 264.9950 13.16594838244515
ONEWEB-0256             
1 48974U 21060H   26205.08083771  .00000021  00000+0  20031-4 0  9992
2 48974  87.9071 221.4533 0001937  93.3969 266.7383 13.16595194244486
ONEWEB-0257             
1 48975U 21060J   26205.11329305  .00000075  00000+0  16246-3 0  9994
2 48975  87.9075 221.4357 0002060  95.9289 264.2077 13.16594326244441
ONEWEB-0258             
1 48976U 21060K   26205.11485849  .00000106  00000+0  24347-3 0  9997
2 48976  87.9074 221.4483 0002079  90.2599 269.8770 13.16592775244451
ONEWEB-0259             
1 48977U 21060L   26205.10854267  .00000060  00000+0  12252-3 0  9992
2 48977  87.9076 221.4476 0002239  92.3440 267.7947 13.16594098244488
ONEWEB-0260             
1 48978U 21060M   26205.09981826  .00000138  00000+0  32665-3 0  9999
2 48978  87.9067 221.4491 0001727  97.3117 262.8210 13.16592704244462
ONEWEB-0261             
1 48979U 21060N   26205.06975821 -.00000029  00000+0 -10915-3 0  9990
2 48979  87.9075 221.4561 0002219 100.5741 259.5640 13.16594180244513
ONEWEB-0262             
1 48980U 21060P   26205.12594730 -.00014681  00000+0 -38456-1 0  9992
2 48980  87.9072 221.4316 0001858  80.1343 279.9998 13.16669795244482
ONEWEB-0263             
1 48981U 21060Q   26205.08162501 -.00000032  00000+0 -11734-3 0  9992
2 48981  87.9078 221.4526 0002297  98.8657 261.2734 13.16594154244448
ONEWEB-0264             
1 48982U 21060R   26205.27082295  .00000108  00000+0  24861-3 0  9992
2 48982  87.9074 221.4167 0002021  97.7147 262.4213 13.16592816244474
ONEWEB-0266             
1 48984U 21060T   26205.06418997 -.00000201  00000+0 -55865-3 0  9997
2 48984  87.9078 221.4490 0002083  89.2107 270.9262 13.16594257244434
ONEWEB-0267             
1 48985U 21060U   26205.30328327 -.00000034  00000+0 -12239-3 0  9994
2 48985  87.9082 221.3991 0002113  97.9551 262.1820 13.16594368244478
ONEWEB-0268             
1 48986U 21060V   26205.04361352  .00000102  00000+0  23239-3 0  9997
2 48986  87.9071 221.4598 0001917  91.7251 268.4099 13.16593623244707
ONEWEB-0269             
1 48987U 21060W   26205.10062416  .00000170  00000+0  41104-3 0  9990
2 48987  87.9067 221.4482 0001874  88.9264 271.2082 13.16594450244487
ONEWEB-0270             
1 48988U 21060X   26205.11802867  .00000035  00000+0  58028-4 0  9998
2 48988  87.9085 221.4474 0003067 107.4504 252.6963 13.16592994244526
